[{"OBJECT_NAME":"STARLINK-1056","OBJECT_ID":"2019-074BA","EPOCH":"2025-10-24T22:00:03.998880","MEAN_MOTION":15.99679852,"ECCENTRICITY":0.0002991,"INCLINATION":53.0362,"RA_OF_ASC_NODE":48.6144,"ARG_OF_PERICENTER":357.3492,"MEAN_ANOMALY":207.7391,"EPHEMERIS_TYPE":0,"CLASSIFICATION_TYPE":"U","NORAD_CAT_ID":44761,"ELEMENT_SET_NO":999,"REV_AT_EPOCH":605,"BSTAR":0.00096021,"MEAN_MOTION_DOT":0.00492164,"MEAN_MOTION_DDOT":0.00011569},{"OBJECT_NAME":"STARLINK-1060","OBJECT_ID":"2019-074BE","EPOCH":"2025-10-24T18:50:50.957664","MEAN_MOTION":15.60813415,"ECCENTRICITY":0.000143,"INCLINATION":53.0544,"RA_OF_ASC_NODE":83.8465,"ARG_OF_PERICENTER":356.9091,"MEAN_ANOMALY":3.1913,"EPHEMERIS_TYPE":0,"CLASSIFICATION_TYPE":"U","NORAD_CAT_ID":44765,"ELEMENT_SET_NO":999,"REV_AT_EPOCH":32816,"BSTAR":0.0015052,"MEAN_MOTION_DOT":0.00129377,"MEAN_MOTION_DDOT":0},{"OBJECT_NAME":"STARLINK-1063","OBJECT_ID":"2019-074BH","EPOCH":"2025-10-24T19:28:55.665696","MEAN_MOTION":15.06395584,"ECCENTRICITY":0.0001351,"INCLINATION":53.0526,"RA_OF_ASC_NODE":116.5986,"ARG_OF_PERICENTER":94.1136,"MEAN_ANOMALY":266.0008,"EPHEMERIS_TYPE":0,"CLASSIFICATION_TYPE":"U","NORAD_CAT_ID":44768,"ELEMENT_SET_NO":999,"REV_AT_EPOCH":32772,"BSTAR":0.00036673,"MEAN_MOTION_DOT":5.184e-5,"MEAN_MOTION_DDOT":0},{"OBJECT_NAME":"STARLINK-1067","OBJECT_ID":"2019-074BL","EPOCH":"2025-10-24T19:12:59.768928","MEAN_MOTION":15.06394374,"ECCENTRICITY":0.0001287,"INCLINATION":53.0537,"RA_OF_ASC_NODE":116.6491,"ARG_OF_PERICENTER":90.0228,"MEAN_ANOMALY":270.0908,"EPHEMERIS_TYPE":0,"CLASSIFICATION_TYPE":"U","NORAD_CAT_ID":44771,"ELEMENT_SET_NO":999,"REV_AT_EPOCH":32771,"BSTAR":0.00012958,"MEAN_MOTION_DOT":1.649e-5,"MEAN_MOTION_DDOT":0},{"OBJECT_NAME":"STARLINK-1068","OBJECT_ID":"2019-074BM","EPOCH":"2025-10-24T17:24:10.279872","MEAN_MOTION":15.06396141,"ECCENTRICITY":0.0001117,"INCLINATION":53.0525,"RA_OF_ASC_NODE":96.9861,"ARG_OF_PERICENTER":90.7185,"MEAN_ANOMALY":269.3932,"EPHEMERIS_TYPE":0,"CLASSIFICATION_TYPE":"U","NORAD_CAT_ID":44772,"ELEMENT_SET_NO":999,"REV_AT_EPOCH":32797,"BSTAR":6.0021e-5,"MEAN_MOTION_DOT":6.13e-6,"MEAN_MOTION_DDOT":0},{"OBJECT_NAME":"STARLINK-1112","OBJECT_ID":"2020-001M","EPOCH":"2025-10-24T17:01:50.475936","MEAN_MOTION":15.53755259,"ECCENTRICITY":0.0004812,"INCLINATION":53.0503,"RA_OF_ASC_NODE":197.141,"ARG_OF_PERICENTER":124.6622,"MEAN_ANOMALY":235.4842,"EPHEMERIS_TYPE":0,"CLASSIFICATION_TYPE":"U","NORAD_CAT_ID":44925,"ELEMENT_SET_NO":999,"REV_AT_EPOCH":31991,"BSTAR":0.0017558,"MEAN_MOTION_DOT":0.00115762,"MEAN_MOTION_DDOT":0},{"OBJECT_NAME":"STARLINK-1114","OBJECT_ID":"2020-001P","EPOCH":"2025-10-24T13:33:17.470656","MEAN_MOTION":15.06399273,"ECCENTRICITY":0.0001386,"INCLINATION":53.0531,"RA_OF_ASC_NODE":237.7059,"ARG_OF_PERICENTER":95.0342,"MEAN_ANOMALY":265.0805,"EPHEMERIS_TYPE":0,"CLASSIFICATION_TYPE":"U","NORAD_CAT_ID":44927,"ELEMENT_SET_NO":999,"REV_AT_EPOCH":31933,"BSTAR":0.00032354,"MEAN_MOTION_DOT":4.541e-5,"MEAN_MOTION_DDOT":0},{"OBJECT_NAME":"STARLINK-1123","OBJECT_ID":"2020-001S","EPOCH":"2025-10-24T20:16:38.786304","MEAN_MOTION":15.06411384,"ECCENTRICITY":0.0001277,"INCLINATION":53.0524,"RA_OF_ASC_NODE":236.4499,"ARG_OF_PERICENTER":102.9049,"MEAN_ANOMALY":257.2082,"EPHEMERIS_TYPE":0,"CLASSIFICATION_TYPE":"U","NORAD_CAT_ID":44930,"ELEMENT_SET_NO":999,"REV_AT_EPOCH":31937,"BSTAR":0.0015279,"MEAN_MOTION_DOT":0.00022557,"MEAN_MOTION_DDOT":0},{"OBJECT_NAME":"STARLINK-1144","OBJECT_ID":"2020-001V","EPOCH":"2025-10-24T20:40:48.885024","MEAN_MOTION":15.58495376,"ECCENTRICITY":0.0012681,"INCLINATION":53.0424,"RA_OF_ASC_NODE":173.7041,"ARG_OF_PERICENTER":73.6117,"MEAN_ANOMALY":286.6287,"EPHEMERIS_TYPE":0,"CLASSIFICATION_TYPE":"U","NORAD_CAT_ID":44933,"ELEMENT_SET_NO":999,"REV_AT_EPOCH":32155,"BSTAR":0.0015517,"MEAN_MOTION_DOT":0.00122396,"MEAN_MOTION_DDOT":0},{"OBJECT_NAME":"STARLINK-1091","OBJECT_ID":"2020-001AC","EPOCH":"2025-10-24T22:00:03.998880","MEAN_MOTION":15.9638007,"ECCENTRICITY":0.000273,"INCLINATION":53.0336,"RA_OF_ASC_NODE":151.3598,"ARG_OF_PERICENTER":242.2615,"MEAN_ANOMALY":84.8521,"EPHEMERIS_TYPE":0,"CLASSIFICATION_TYPE":"U","NORAD_CAT_ID":44940,"ELEMENT_SET_NO":999,"REV_AT_EPOCH":603,"BSTAR":0.00095409,"MEAN_MOTION_DOT":0.00406252,"MEAN_MOTION_DDOT":7.8059e-5},{"OBJECT_NAME":"STARLINK-1094","OBJECT_ID":"2020-001AD","EPOCH":"2025-10-24T18:59:43.471104","MEAN_MOTION":15.06407381,"ECCENTRICITY":0.0001778,"INCLINATION":53.0542,"RA_OF_ASC_NODE":216.6905,"ARG_OF_PERICENTER":87.5813,"MEAN_ANOMALY":272.5379,"EPHEMERIS_TYPE":0,"CLASSIFICATION_TYPE":"U","NORAD_CAT_ID":44941,"ELEMENT_SET_NO":999,"REV_AT_EPOCH":31964,"BSTAR":0.00042687,"MEAN_MOTION_DOT":6.083e-5,"MEAN_MOTION_DDOT":0},{"OBJECT_NAME":"STARLINK-1096","OBJECT_ID":"2020-001AE","EPOCH":"2025-10-24T22:00:03.998880","MEAN_MOTION":15.87495758,"ECCENTRICITY":0.000745,"INCLINATION":52.9882,"RA_OF_ASC_NODE":338.8369,"ARG_OF_PERICENTER":23.1408,"MEAN_ANOMALY":58.0312,"EPHEMERIS_TYPE":0,"CLASSIFICATION_TYPE":"U","NORAD_CAT_ID":44942,"ELEMENT_SET_NO":999,"REV_AT_EPOCH":605,"BSTAR":0.0009519,"MEAN_MOTION_DOT":0.0026528,"MEAN_MOTION_DDOT":0},{"OBJECT_NAME":"STARLINK-1122","OBJECT_ID":"2020-001AM","EPOCH":"2025-10-24T17:56:01.987008","MEAN_MOTION":15.06397457,"ECCENTRICITY":0.0002033,"INCLINATION":53.055,"RA_OF_ASC_NODE":216.8853,"ARG_OF_PERICENTER":85.1847,"MEAN_ANOMALY":274.9374,"EPHEMERIS_TYPE":0,"CLASSIFICATION_TYPE":"U","NORAD_CAT_ID":44949,"ELEMENT_SET_NO":999,"REV_AT_EPOCH":31963,"BSTAR":0.00016958,"MEAN_MOTION_DOT":2.245e-5,"MEAN_MOTION_DDOT":0},{"OBJECT_NAME":"STARLINK-1080","OBJECT_ID":"2020-001AZ","EPOCH":"2025-10-24T17:53:22.113312","MEAN_MOTION":15.06408068,"ECCENTRICITY":0.0001508,"INCLINATION":53.0539,"RA_OF_ASC_NODE":196.897,"ARG_OF_PERICENTER":79.2991,"MEAN_ANOMALY":280.8167,"EPHEMERIS_TYPE":0,"CLASSIFICATION_TYPE":"U","NORAD_CAT_ID":44961,"ELEMENT_SET_NO":999,"REV_AT_EPOCH":31992,"BSTAR":0.00037667,"MEAN_MOTION_DOT":5.335e-5,"MEAN_MOTION_DDOT":0},{"OBJECT_NAME":"STARLINK-1090","OBJECT_ID":"2020-001BG","EPOCH":"2025-10-24T16:23:08.600352","MEAN_MOTION":15.06407663,"ECCENTRICITY":0.0001853,"INCLINATION":53.0525,"RA_OF_ASC_NODE":197.1778,"ARG_OF_PERICENTER":67.2291,"MEAN_ANOMALY":292.8894,"EPHEMERIS_TYPE":0,"CLASSIFICATION_TYPE":"U","NORAD_CAT_ID":44968,"ELEMENT_SET_NO":999,"REV_AT_EPOCH":31991,"BSTAR":0.00034228,"MEAN_MOTION_DOT":4.821e-5,"MEAN_MOTION_DDOT":0},{"OBJECT_NAME":"STARLINK-1107","OBJECT_ID":"2020-001BL","EPOCH":"2025-10-24T22:00:03.998880","MEAN_MOTION":15.65769031,"ECCENTRICITY":0.0004977,"INCLINATION":53.0076,"RA_OF_ASC_NODE":113.5098,"ARG_OF_PERICENTER":214.6753,"MEAN_ANOMALY":127.9678,"EPHEMERIS_TYPE":0,"CLASSIFICATION_TYPE":"U","NORAD_CAT_ID":44972,"ELEMENT_SET_NO":999,"REV_AT_EPOCH":597,"BSTAR":0.0020817,"MEAN_MOTION_DOT":0.0022017,"MEAN_MOTION_DDOT":0}]
