STARLINK-1056           
1 44761U 19074BA  25297.91671295  .00492164  11569-3  96021-3 0  9990
2 44761  53.0362  48.6144 0002991 357.3492 207.7391 15.99679852  6055
STARLINK-1060           
1 44765U 19074BE  25297.78531201  .00129377  00000+0  15052-2 0  9992
2 44765  53.0544  83.8465 0001430 356.9091   3.1913 15.60813415328165
STARLINK-1063           
1 44768U 19074BH  25297.81175539  .00005184  00000+0  36673-3 0  9999
2 44768  53.0526 116.5986 0001351  94.1136 266.0008 15.06395584327721
STARLINK-1067           
1 44771U 19074BL  25297.80069177  .00001649  00000+0  12958-3 0  9994
2 44771  53.0537 116.6491 0001287  90.0228 270.0908 15.06394374327713
STARLINK-1068           
1 44772U 19074BM  25297.72511898  .00000613  00000+0  60021-4 0  9993
2 44772  53.0525  96.9861 0001117  90.7185 269.3932 15.06396141327973
STARLINK-1112           
1 44925U 20001M   25297.70961199  .00115762  00000+0  17558-2 0  9993
2 44925  53.0503 197.1410 0004812 124.6622 235.4842 15.53755259319911
STARLINK-1114           
1 44927U 20001P   25297.56478554  .00004541  00000+0  32354-3 0  9991
2 44927  53.0531 237.7059 0001386  95.0342 265.0805 15.06399273319339
STARLINK-1123           
1 44930U 20001S   25297.84489336  .00022557  00000+0  15279-2 0  9999
2 44930  53.0524 236.4499 0001277 102.9049 257.2082 15.06411384319372
STARLINK-1144           
1 44933U 20001V   25297.86167691  .00122396  00000+0  15517-2 0  9998
2 44933  53.0424 173.7041 0012681  73.6117 286.6287 15.58495376321557
STARLINK-1091           
1 44940U 20001AC  25297.91671295  .00406252  78059-4  95409-3 0  9991
2 44940  53.0336 151.3598 0002730 242.2615  84.8521 15.96380070  6035
STARLINK-1094           
1 44941U 20001AD  25297.79147536  .00006083  00000+0  42687-3 0  9998
2 44941  53.0542 216.6905 0001778  87.5813 272.5379 15.06407381319640
STARLINK-1096           
1 44942U 20001AE  25297.91671295  .00265280  00000+0  95190-3 0  9990
2 44942  52.9882 338.8369 0007450  23.1408  58.0312 15.87495758  6052
STARLINK-1122           
1 44949U 20001AM  25297.74724522  .00002245  00000+0  16958-3 0  9995
2 44949  53.0550 216.8853 0002033  85.1847 274.9374 15.06397457319639
STARLINK-1080           
1 44961U 20001AZ  25297.74539483  .00005335  00000+0  37667-3 0  9992
2 44961  53.0539 196.8970 0001508  79.2991 280.8167 15.06408068319926
STARLINK-1090           
1 44968U 20001BG  25297.68273843  .00004821  00000+0  34228-3 0  9996
2 44968  53.0525 197.1778 0001853  67.2291 292.8894 15.06407663319910
STARLINK-1107           
1 44972U 20001BL  25297.91671295  .00220170  00000+0  20817-2 0  9995
2 44972  53.0076 113.5098 0004977 214.6753 127.9678 15.65769031  5975
